{
  "type": "FeatureCollection",
  "features": [
    {
      "type": "Feature",
      "properties": {
        "norad_id": 34492,
        "name": "IRIDIUM 33 DEB",
        "group": "iridium-33-debris",
        "lat": 47.59253017724566,
        "lon": -25.30971745748643,
        "alt_km": 928.2505794695626,
        "timestamp": "2025-12-22T04:03:39.553864+00:00",
        "meta_object_name": "IRIDIUM 33 DEB",
        "meta_object_id": "1997-051GH",
        "meta_epoch": "2025-12-21T16:53:32.785152",
        "meta_mean_motion": 14.25874095,
        "meta_eccentricity": 0.0188684,
        "meta_inclination": 86.4714,
        "meta_ra_of_asc_node": 331.0047,
        "meta_arg_of_pericenter": 209.0267,
        "meta_mean_anomaly": 332.2714,
        "meta_ephemeris_type": 0,
        "meta_classification_type": "U",
        "meta_norad_cat_id": 34492,
        "meta_element_set_no": 999,
        "meta_rev_at_epoch": 85186,
        "meta_bstar": 0.002243,
        "meta_mean_motion_dot": 6.457e-05,
        "meta_mean_motion_ddot": 0,
        "tle_line1": "1 34492U 97051GH  25355.70385168  .00006457  00000+0  22430-2 0  9996",
        "tle_line2": "2 34492  86.4714 331.0047 0188684 209.0267 332.2714 14.25874095851868"
      },
      "geometry": {
        "type": "Point",
        "coordinates": [
          -25.30971745748643,
          47.59253017724566
        ]
      }
    },
    {
      "type": "Feature",
      "properties": {
        "norad_id": 34497,
        "name": "IRIDIUM 33 DEB",
        "group": "iridium-33-debris",
        "lat": -16.643713296924144,
        "lon": 47.25805536281784,
        "alt_km": 758.8818646989585,
        "timestamp": "2025-12-22T04:03:39.553874+00:00",
        "meta_object_name": "IRIDIUM 33 DEB",
        "meta_object_id": "1997-051GN",
        "meta_epoch": "2025-12-21T03:02:18.965760",
        "meta_mean_motion": 14.27475874,
        "meta_eccentricity": 0.00780469,
        "meta_inclination": 86.2771,
        "meta_ra_of_asc_node": 48.8187,
        "meta_arg_of_pericenter": 312.1215,
        "meta_mean_anomaly": 76.3389,
        "meta_ephemeris_type": 0,
        "meta_classification_type": "U",
        "meta_norad_cat_id": 34497,
        "meta_element_set_no": 999,
        "meta_rev_at_epoch": 87003,
        "meta_bstar": 0.00042941712,
        "meta_mean_motion_dot": 1.107e-05,
        "meta_mean_motion_ddot": 0,
        "tle_line1": "1 34497U 97051GN  25355.12660840  .00001107  00000+0  42942-3 0  9998",
        "tle_line2": "2 34497  86.2771  48.8187 0078046 312.1215  76.3389 14.27475874870039"
      },
      "geometry": {
        "type": "Point",
        "coordinates": [
          47.25805536281784,
          -16.643713296924144
        ]
      }
    },
    {
      "type": "Feature",
      "properties": {
        "norad_id": 34508,
        "name": "IRIDIUM 33 DEB",
        "group": "iridium-33-debris",
        "lat": 26.030351930323942,
        "lon": -83.13011502207775,
        "alt_km": 715.9914288372047,
        "timestamp": "2025-12-22T04:03:39.553885+00:00",
        "meta_object_name": "IRIDIUM 33 DEB",
        "meta_object_id": "1997-051GZ",
        "meta_epoch": "2025-12-21T00:38:21.315840",
        "meta_mean_motion": 14.38484044,
        "meta_eccentricity": 0.00666098,
        "meta_inclination": 86.371,
        "meta_ra_of_asc_node": 99.1304,
        "meta_arg_of_pericenter": 146.3518,
        "meta_mean_anomaly": 214.1938,
        "meta_ephemeris_type": 0,
        "meta_classification_type": "U",
        "meta_norad_cat_id": 34508,
        "meta_element_set_no": 999,
        "meta_rev_at_epoch": 87428,
        "meta_bstar": 0.00080829336,
        "meta_mean_motion_dot": 2.552e-05,
        "meta_mean_motion_ddot": 0,
        "tle_line1": "1 34508U 97051GZ  25355.02663560  .00002552  00000+0  80829-3 0  9993",
        "tle_line2": "2 34508  86.3710  99.1304 0066609 146.3518 214.1938 14.38484044874285"
      },
      "geometry": {
        "type": "Point",
        "coordinates": [
          -83.13011502207775,
          26.030351930323942
        ]
      }
    },
    {
      "type": "Feature",
      "properties": {
        "norad_id": 34521,
        "name": "IRIDIUM 33 DEB",
        "group": "iridium-33-debris",
        "lat": 82.25124092802552,
        "lon": 178.65920746316726,
        "alt_km": 674.360175038174,
        "timestamp": "2025-12-22T04:03:39.553895+00:00",
        "meta_object_name": "IRIDIUM 33 DEB",
        "meta_object_id": "1997-051HN",
        "meta_epoch": "2025-12-21T09:34:06.570624",
        "meta_mean_motion": 14.63431866,
        "meta_eccentricity": 0.00026113,
        "meta_inclination": 86.3787,
        "meta_ra_of_asc_node": 26.7355,
        "meta_arg_of_pericenter": 178.2335,
        "meta_mean_anomaly": 181.8887,
        "meta_ephemeris_type": 0,
        "meta_classification_type": "U",
        "meta_norad_cat_id": 34521,
        "meta_element_set_no": 999,
        "meta_rev_at_epoch": 88599,
        "meta_bstar": 0.00062299152,
        "meta_mean_motion_dot": 3.244e-05,
        "meta_mean_motion_ddot": 0,
        "tle_line1": "1 34521U 97051HN  25355.39868716  .00003244  00000+0  62299-3 0  9998",
        "tle_line2": "2 34521  86.3787  26.7355 0002611 178.2335 181.8887 14.63431866885995"
      },
      "geometry": {
        "type": "Point",
        "coordinates": [
          178.65920746316726,
          82.25124092802552
        ]
      }
    },
    {
      "type": "Feature",
      "properties": {
        "norad_id": 34525,
        "name": "IRIDIUM 33 DEB",
        "group": "iridium-33-debris",
        "lat": -58.51042965962983,
        "lon": 36.873574164069616,
        "alt_km": 759.0882441569483,
        "timestamp": "2025-12-22T04:03:39.553905+00:00",
        "meta_object_name": "IRIDIUM 33 DEB",
        "meta_object_id": "1997-051HS",
        "meta_epoch": "2025-12-21T15:36:41.438304",
        "meta_mean_motion": 14.42924911,
        "meta_eccentricity": 0.0006415,
        "meta_inclination": 86.372,
        "meta_ra_of_asc_node": 43.0402,
        "meta_arg_of_pericenter": 74.7461,
        "meta_mean_anomaly": 53.8442,
        "meta_ephemeris_type": 0,
        "meta_classification_type": "U",
        "meta_norad_cat_id": 34525,
        "meta_element_set_no": 999,
        "meta_rev_at_epoch": 88216,
        "meta_bstar": 0.00026512,
        "meta_mean_motion_dot": 9.06e-06,
        "meta_mean_motion_ddot": 0,
        "tle_line1": "1 34525U 97051HS  25355.65047961  .00000906  00000+0  26512-3 0  9992",
        "tle_line2": "2 34525  86.3720  43.0402 0006415  74.7461  53.8442 14.42924911882163"
      },
      "geometry": {
        "type": "Point",
        "coordinates": [
          36.873574164069616,
          -58.51042965962983
        ]
      }
    },
    {
      "type": "Feature",
      "properties": {
        "norad_id": 34529,
        "name": "IRIDIUM 33 DEB",
        "group": "iridium-33-debris",
        "lat": 61.414287110892204,
        "lon": -155.31062620083387,
        "alt_km": 747.0015048450696,
        "timestamp": "2025-12-22T04:03:39.553915+00:00",
        "meta_object_name": "IRIDIUM 33 DEB",
        "meta_object_id": "1997-051HW",
        "meta_epoch": "2025-12-21T09:10:35.665536",
        "meta_mean_motion": 14.4062226,
        "meta_eccentricity": 0.00057974,
        "meta_inclination": 86.3634,
        "meta_ra_of_asc_node": 31.7273,
        "meta_arg_of_pericenter": 151.7059,
        "meta_mean_anomaly": 208.4457,
        "meta_ephemeris_type": 0,
        "meta_classification_type": "U",
        "meta_norad_cat_id": 34529,
        "meta_element_set_no": 999,
        "meta_rev_at_epoch": 88266,
        "meta_bstar": 9.6722833e-05,
        "meta_mean_motion_dot": 3.28e-06,
        "meta_mean_motion_ddot": 0,
        "tle_line1": "1 34529U 97051HW  25355.38235724  .00000328  00000+0  96723-4 0  9992",
        "tle_line2": "2 34529  86.3634  31.7273 0005797 151.7059 208.4457 14.40622260882661"
      },
      "geometry": {
        "type": "Point",
        "coordinates": [
          -155.31062620083387,
          61.414287110892204
        ]
      }
    },
    {
      "type": "Feature",
      "properties": {
        "norad_id": 34538,
        "name": "IRIDIUM 33 DEB",
        "group": "iridium-33-debris",
        "lat": 25.357441626701355,
        "lon": 3.194185334531939,
        "alt_km": 748.82040007467,
        "timestamp": "2025-12-22T04:03:39.553925+00:00",
        "meta_object_name": "IRIDIUM 33 DEB",
        "meta_object_id": "1997-051JF",
        "meta_epoch": "2025-12-21T12:00:19.123776",
        "meta_mean_motion": 14.42695029,
        "meta_eccentricity": 0.00320877,
        "meta_inclination": 86.2759,
        "meta_ra_of_asc_node": 1.7183,
        "meta_arg_of_pericenter": 297.7157,
        "meta_mean_anomaly": 215.1252,
        "meta_ephemeris_type": 0,
        "meta_classification_type": "U",
        "meta_norad_cat_id": 34538,
        "meta_element_set_no": 999,
        "meta_rev_at_epoch": 87882,
        "meta_bstar": 0.00071835416,
        "meta_mean_motion_dot": 2.423e-05,
        "meta_mean_motion_ddot": 0,
        "tle_line1": "1 34538U 97051JF  25355.50022134  .00002423  00000+0  71835-3 0  9999",
        "tle_line2": "2 34538  86.2759   1.7183 0032087 297.7157 215.1252 14.42695029878823"
      },
      "geometry": {
        "type": "Point",
        "coordinates": [
          3.194185334531939,
          25.357441626701355
        ]
      }
    }
  ]
}